ONEWEB-0216             
1 48801U 21045AL  26023.22482241  .00000018  00000+0  12920-4 0  9997
2 48801  87.9001 288.1323 0001640  69.1915 290.9391 13.15549801225242
ONEWEB-0239             
1 48802U 21045AM  26023.45775079 -.00000030  00000+0 -11477-3 0  9998
2 48802  87.9000 288.1000 0000744  75.2510 284.8703 13.15547776225313
ONEWEB-0249             
1 48967U 21060A   26023.65787179 -.00000043  00000+0 -14709-3 0  9998
2 48967  87.9018 257.5527 0001354  80.8563 279.2721 13.16595308220594
ONEWEB-0250             
1 48968U 21060B   26023.33347016  .00000121  00000+0  24577-3 0  9995
2 48968  87.9015 255.8467 0001576 121.1520 238.9771 13.25823889221028
ONEWEB-0252             
1 48970U 21060D   26023.61354242 -.00000082  00000+0 -24792-3 0  9995
2 48970  87.9016 257.5551 0001534  72.4862 287.6437 13.16593932220635
ONEWEB-0253             
1 48971U 21060E   26023.60245801  .00000006  00000+0 -17970-4 0  9991
2 48971  87.9018 257.5623 0001347  78.8691 281.2591 13.16595638220568
ONEWEB-0254             
1 48972U 21060F   26023.61194948 -.00000069  00000+0 -21378-3 0  9994
2 48972  87.9021 257.5537 0001129  86.2289 273.8971 13.16592758220560
ONEWEB-0255             
1 48973U 21060G   26023.64995661  .00000041  00000+0  73315-4 0  9996
2 48973  87.9014 257.5581 0001247  80.6616 279.4656 13.16596192220642
ONEWEB-0256             
1 48974U 21060H   26023.37209411  .00000007  00000+0 -16297-4 0  9997
2 48974  87.9008 257.6201 0001590  78.9371 281.1939 13.16594077220571
ONEWEB-0257             
1 48975U 21060J   26023.63253519  .00000061  00000+0  12636-3 0  9996
2 48975  87.9018 257.5511 0001366  76.6062 283.5222 13.16596143220565
ONEWEB-0258             
1 48976U 21060K   26023.63412040  .00000083  00000+0  18381-3 0  9990
2 48976  87.9012 257.5637 0001486  85.2112 274.9189 13.16596232220570
ONEWEB-0259             
1 48977U 21060L   26023.62778709  .00000069  00000+0  14628-3 0  9991
2 48977  87.9019 257.5618 0001312  83.6107 276.5174 13.16595682220605
ONEWEB-0260             
1 48978U 21060M   26023.39109340  .00000105  00000+0  24200-3 0  9993
2 48978  87.9006 257.6179 0001728  70.1586 289.9731 13.16594008220550
ONEWEB-0261             
1 48979U 21060N   26023.36100760  .00000009  00000+0 -89879-5 0  9997
2 48979  87.9010 257.6259 0001188  70.5023 289.6236 13.16593674220606
ONEWEB-0262             
1 48980U 21060P   26023.56920762  .00000118  00000+0  27607-3 0  9992
2 48980  87.9019 257.5621 0001302  89.7476 270.3804 13.16595838220591
ONEWEB-0263             
1 48981U 21060Q   26023.60086540  .00000066  00000+0  14016-3 0  9997
2 48981  87.9012 257.5675 0001098  76.1804 283.9449 13.16595315220563
ONEWEB-0264             
1 48982U 21060R   26023.18209461  .00000193  00000+0  47055-3 0  9990
2 48982  87.9007 257.6560 0001351  77.3777 282.7505 13.16592187220515
