[{"OBJECT_NAME":"ONEWEB-0216","OBJECT_ID":"2021-045AL","EPOCH":"2026-01-23T05:23:44.656224","MEAN_MOTION":13.15549801,"ECCENTRICITY":0.00016409,"INCLINATION":87.9001,"RA_OF_ASC_NODE":288.1323,"ARG_OF_PERICENTER":69.1915,"MEAN_ANOMALY":290.9391,"EPHEMERIS_TYPE":0,"CLASSIFICATION_TYPE":"U","NORAD_CAT_ID":48801,"ELEMENT_SET_NO":999,"REV_AT_EPOCH":22524,"BSTAR":1.2919926e-5,"MEAN_MOTION_DOT":1.8e-7,"MEAN_MOTION_DDOT":0},{"OBJECT_NAME":"ONEWEB-0239","OBJECT_ID":"2021-045AM","EPOCH":"2026-01-23T10:59:09.668256","MEAN_MOTION":13.15547776,"ECCENTRICITY":7.448e-5,"INCLINATION":87.9,"RA_OF_ASC_NODE":288.1,"ARG_OF_PERICENTER":75.251,"MEAN_ANOMALY":284.8703,"EPHEMERIS_TYPE":0,"CLASSIFICATION_TYPE":"U","NORAD_CAT_ID":48802,"ELEMENT_SET_NO":999,"REV_AT_EPOCH":22531,"BSTAR":-0.00011477381,"MEAN_MOTION_DOT":-3.0e-7,"MEAN_MOTION_DDOT":0},{"OBJECT_NAME":"ONEWEB-0249","OBJECT_ID":"2021-060A","EPOCH":"2026-01-23T15:47:20.122656","MEAN_MOTION":13.16595308,"ECCENTRICITY":0.0001354,"INCLINATION":87.9018,"RA_OF_ASC_NODE":257.5527,"ARG_OF_PERICENTER":80.8563,"MEAN_ANOMALY":279.2721,"EPHEMERIS_TYPE":0,"CLASSIFICATION_TYPE":"U","NORAD_CAT_ID":48967,"ELEMENT_SET_NO":999,"REV_AT_EPOCH":22059,"BSTAR":-0.00014708516,"MEAN_MOTION_DOT":-4.3e-7,"MEAN_MOTION_DDOT":0},{"OBJECT_NAME":"ONEWEB-0250","OBJECT_ID":"2021-060B","EPOCH":"2026-01-23T08:00:11.821824","MEAN_MOTION":13.25823889,"ECCENTRICITY":0.00015766,"INCLINATION":87.9015,"RA_OF_ASC_NODE":255.8467,"ARG_OF_PERICENTER":121.152,"MEAN_ANOMALY":238.9771,"EPHEMERIS_TYPE":0,"CLASSIFICATION_TYPE":"U","NORAD_CAT_ID":48968,"ELEMENT_SET_NO":999,"REV_AT_EPOCH":22102,"BSTAR":0.00024576682,"MEAN_MOTION_DOT":1.21e-6,"MEAN_MOTION_DDOT":0},{"OBJECT_NAME":"ONEWEB-0252","OBJECT_ID":"2021-060D","EPOCH":"2026-01-23T14:43:30.065088","MEAN_MOTION":13.16593932,"ECCENTRICITY":0.00015345,"INCLINATION":87.9016,"RA_OF_ASC_NODE":257.5551,"ARG_OF_PERICENTER":72.4862,"MEAN_ANOMALY":287.6437,"EPHEMERIS_TYPE":0,"CLASSIFICATION_TYPE":"U","NORAD_CAT_ID":48970,"ELEMENT_SET_NO":999,"REV_AT_EPOCH":22063,"BSTAR":-0.00024791535,"MEAN_MOTION_DOT":-8.2e-7,"MEAN_MOTION_DDOT":0},{"OBJECT_NAME":"ONEWEB-0253","OBJECT_ID":"2021-060E","EPOCH":"2026-01-23T14:27:32.372064","MEAN_MOTION":13.16595638,"ECCENTRICITY":0.00013473,"INCLINATION":87.9018,"RA_OF_ASC_NODE":257.5623,"ARG_OF_PERICENTER":78.8691,"MEAN_ANOMALY":281.2591,"EPHEMERIS_TYPE":0,"CLASSIFICATION_TYPE":"U","NORAD_CAT_ID":48971,"ELEMENT_SET_NO":999,"REV_AT_EPOCH":22056,"BSTAR":-1.7970484e-5,"MEAN_MOTION_DOT":6.0e-8,"MEAN_MOTION_DDOT":0},{"OBJECT_NAME":"ONEWEB-0254","OBJECT_ID":"2021-060F","EPOCH":"2026-01-23T14:41:12.435072","MEAN_MOTION":13.16592758,"ECCENTRICITY":0.0001129,"INCLINATION":87.9021,"RA_OF_ASC_NODE":257.5537,"ARG_OF_PERICENTER":86.2289,"MEAN_ANOMALY":273.8971,"EPHEMERIS_TYPE":0,"CLASSIFICATION_TYPE":"U","NORAD_CAT_ID":48972,"ELEMENT_SET_NO":999,"REV_AT_EPOCH":22056,"BSTAR":-0.0002137843,"MEAN_MOTION_DOT":-6.9e-7,"MEAN_MOTION_DDOT":0},{"OBJECT_NAME":"ONEWEB-0255","OBJECT_ID":"2021-060G","EPOCH":"2026-01-23T15:35:56.251104","MEAN_MOTION":13.16596192,"ECCENTRICITY":0.00012476,"INCLINATION":87.9014,"RA_OF_ASC_NODE":257.5581,"ARG_OF_PERICENTER":80.6616,"MEAN_ANOMALY":279.4656,"EPHEMERIS_TYPE":0,"CLASSIFICATION_TYPE":"U","NORAD_CAT_ID":48973,"ELEMENT_SET_NO":999,"REV_AT_EPOCH":22064,"BSTAR":7.3315211e-5,"MEAN_MOTION_DOT":4.1e-7,"MEAN_MOTION_DDOT":0},{"OBJECT_NAME":"ONEWEB-0256","OBJECT_ID":"2021-060H","EPOCH":"2026-01-23T08:55:48.931104","MEAN_MOTION":13.16594077,"ECCENTRICITY":0.00015906,"INCLINATION":87.9008,"RA_OF_ASC_NODE":257.6201,"ARG_OF_PERICENTER":78.9371,"MEAN_ANOMALY":281.1939,"EPHEMERIS_TYPE":0,"CLASSIFICATION_TYPE":"U","NORAD_CAT_ID":48974,"ELEMENT_SET_NO":999,"REV_AT_EPOCH":22057,"BSTAR":-1.6296839e-5,"MEAN_MOTION_DOT":7.0e-8,"MEAN_MOTION_DDOT":0},{"OBJECT_NAME":"ONEWEB-0257","OBJECT_ID":"2021-060J","EPOCH":"2026-01-23T15:10:51.040416","MEAN_MOTION":13.16596143,"ECCENTRICITY":0.00013664,"INCLINATION":87.9018,"RA_OF_ASC_NODE":257.5511,"ARG_OF_PERICENTER":76.6062,"MEAN_ANOMALY":283.5222,"EPHEMERIS_TYPE":0,"CLASSIFICATION_TYPE":"U","NORAD_CAT_ID":48975,"ELEMENT_SET_NO":999,"REV_AT_EPOCH":22056,"BSTAR":0.00012636201,"MEAN_MOTION_DOT":6.1e-7,"MEAN_MOTION_DDOT":0},{"OBJECT_NAME":"ONEWEB-0258","OBJECT_ID":"2021-060K","EPOCH":"2026-01-23T15:13:08.002560","MEAN_MOTION":13.16596232,"ECCENTRICITY":0.00014867,"INCLINATION":87.9012,"RA_OF_ASC_NODE":257.5637,"ARG_OF_PERICENTER":85.2112,"MEAN_ANOMALY":274.9189,"EPHEMERIS_TYPE":0,"CLASSIFICATION_TYPE":"U","NORAD_CAT_ID":48976,"ELEMENT_SET_NO":999,"REV_AT_EPOCH":22057,"BSTAR":0.00018381314,"MEAN_MOTION_DOT":8.3e-7,"MEAN_MOTION_DDOT":0},{"OBJECT_NAME":"ONEWEB-0259","OBJECT_ID":"2021-060L","EPOCH":"2026-01-23T15:04:00.804576","MEAN_MOTION":13.16595682,"ECCENTRICITY":0.00013124,"INCLINATION":87.9019,"RA_OF_ASC_NODE":257.5618,"ARG_OF_PERICENTER":83.6107,"MEAN_ANOMALY":276.5174,"EPHEMERIS_TYPE":0,"CLASSIFICATION_TYPE":"U","NORAD_CAT_ID":48977,"ELEMENT_SET_NO":999,"REV_AT_EPOCH":22060,"BSTAR":0.00014628053,"MEAN_MOTION_DOT":6.9e-7,"MEAN_MOTION_DDOT":0},{"OBJECT_NAME":"ONEWEB-0260","OBJECT_ID":"2021-060M","EPOCH":"2026-01-23T09:23:10.469760","MEAN_MOTION":13.16594008,"ECCENTRICITY":0.00017283,"INCLINATION":87.9006,"RA_OF_ASC_NODE":257.6179,"ARG_OF_PERICENTER":70.1586,"MEAN_ANOMALY":289.9731,"EPHEMERIS_TYPE":0,"CLASSIFICATION_TYPE":"U","NORAD_CAT_ID":48978,"ELEMENT_SET_NO":999,"REV_AT_EPOCH":22055,"BSTAR":0.00024199628,"MEAN_MOTION_DOT":1.05e-6,"MEAN_MOTION_DDOT":0},{"OBJECT_NAME":"ONEWEB-0261","OBJECT_ID":"2021-060N","EPOCH":"2026-01-23T08:39:51.056640","MEAN_MOTION":13.16593674,"ECCENTRICITY":0.00011886,"INCLINATION":87.901,"RA_OF_ASC_NODE":257.6259,"ARG_OF_PERICENTER":70.5023,"MEAN_ANOMALY":289.6236,"EPHEMERIS_TYPE":0,"CLASSIFICATION_TYPE":"U","NORAD_CAT_ID":48979,"ELEMENT_SET_NO":999,"REV_AT_EPOCH":22060,"BSTAR":-8.987887e-6,"MEAN_MOTION_DOT":9.0e-8,"MEAN_MOTION_DDOT":0},{"OBJECT_NAME":"ONEWEB-0262","OBJECT_ID":"2021-060P","EPOCH":"2026-01-23T13:39:39.538368","MEAN_MOTION":13.16595838,"ECCENTRICITY":0.00013027,"INCLINATION":87.9019,"RA_OF_ASC_NODE":257.5621,"ARG_OF_PERICENTER":89.7476,"MEAN_ANOMALY":270.3804,"EPHEMERIS_TYPE":0,"CLASSIFICATION_TYPE":"U","NORAD_CAT_ID":48980,"ELEMENT_SET_NO":999,"REV_AT_EPOCH":22059,"BSTAR":0.00027607482,"MEAN_MOTION_DOT":1.18e-6,"MEAN_MOTION_DDOT":0},{"OBJECT_NAME":"ONEWEB-0263","OBJECT_ID":"2021-060Q","EPOCH":"2026-01-23T14:25:14.770560","MEAN_MOTION":13.16595315,"ECCENTRICITY":0.00010986,"INCLINATION":87.9012,"RA_OF_ASC_NODE":257.5675,"ARG_OF_PERICENTER":76.1804,"MEAN_ANOMALY":283.9449,"EPHEMERIS_TYPE":0,"CLASSIFICATION_TYPE":"U","NORAD_CAT_ID":48981,"ELEMENT_SET_NO":999,"REV_AT_EPOCH":22056,"BSTAR":0.00014015688,"MEAN_MOTION_DOT":6.6e-7,"MEAN_MOTION_DDOT":0},{"OBJECT_NAME":"ONEWEB-0264","OBJECT_ID":"2021-060R","EPOCH":"2026-01-23T04:22:12.974304","MEAN_MOTION":13.16592187,"ECCENTRICITY":0.00013515,"INCLINATION":87.9007,"RA_OF_ASC_NODE":257.656,"ARG_OF_PERICENTER":77.3777,"MEAN_ANOMALY":282.7505,"EPHEMERIS_TYPE":0,"CLASSIFICATION_TYPE":"U","NORAD_CAT_ID":48982,"ELEMENT_SET_NO":999,"REV_AT_EPOCH":22051,"BSTAR":0.00047054925,"MEAN_MOTION_DOT":1.93e-6,"MEAN_MOTION_DDOT":0}]
